start=new Date('2023-05-31T00:00:00.000Z').valueOf();
sats=[{"EPOCH":"2023-05-30T19:42:55.474560","TLE_LINE1":"1 48656U 21044U   23150.82147540  .00016478  00000-0  11220-2 0  9996","OBJECT_NAME":"STARLINK-2701","NORAD_CAT_ID":"48656","FILE":"3921192","COUNTRY_CODE":"US","MEAN_MOTION_DDOT":"0.0000000000000","OBJECT_ID":"2021-044U","CENTER_NAME":"EARTH","MEAN_MOTION_DOT":"0.00016478","TIME_SYSTEM":"UTC","MEAN_MOTION":"15.06417405","OBJECT_TYPE":"PAYLOAD","INCLINATION":"53.0550","APOAPSIS":"547.645","REV_AT_EPOCH":"11089","EPHEMERIS_TYPE":"0","ARG_OF_PERICENTER":"85.0047","LAUNCH_DATE":"2021-05-26","RCS_SIZE":"LARGE","ECCENTRICITY":"0.00007000","MEAN_ELEMENT_THEORY":"SGP4","SITE":"AFETR","CLASSIFICATION_TYPE":"U","BSTAR":"0.00112200000000","ELEMENT_SET_NO":"999","MEAN_ANOMALY":"275.1022","SEMIMAJOR_AXIS":"6925.295","PERIAPSIS":"546.675","REF_FRAME":"TEME","DECAY_DATE":null,"PERIOD":"95.591","GP_ID":"232851564","RA_OF_ASC_NODE":"353.0480","TLE_LINE2":"2 48656  53.0550 353.0480 0000700  85.0047 275.1022 15.06417405110894"},{"RCS_SIZE":"LARGE","LAUNCH_DATE":"2021-05-26","ECCENTRICITY":"0.00013200","MEAN_ELEMENT_THEORY":"SGP4","BSTAR":"0.00221810000000","CLASSIFICATION_TYPE":"U","SITE":"AFETR","ELEMENT_SET_NO":"999","REF_FRAME":"TEME","PERIAPSIS":"546.268","SEMIMAJOR_AXIS":"6925.317","MEAN_ANOMALY":"266.7087","DECAY_DATE":null,"PERIOD":"95.591","TLE_LINE2":"2 48657  53.0541 352.7707 0001320  93.4053 266.7087 15.06410152110903","RA_OF_ASC_NODE":"352.7707","GP_ID":"232851814","OBJECT_NAME":"STARLINK-2734","TLE_LINE1":"1 48657U 21044V   23150.88415282  .00032921  00000-0  22181-2 0  9993","EPOCH":"2023-05-30T21:13:10.803648","NORAD_CAT_ID":"48657","OBJECT_ID":"2021-044V","MEAN_MOTION_DDOT":"0.0000000000000","COUNTRY_CODE":"US","FILE":"3921192","MEAN_MOTION_DOT":"0.00032921","CENTER_NAME":"EARTH","TIME_SYSTEM":"UTC","INCLINATION":"53.0541","MEAN_MOTION":"15.06410152","OBJECT_TYPE":"PAYLOAD","APOAPSIS":"548.097","ARG_OF_PERICENTER":"93.4053","REV_AT_EPOCH":"11090","EPHEMERIS_TYPE":"0"},{"BSTAR":"0.00074580000000","CLASSIFICATION_TYPE":"U","SITE":"AFETR","MEAN_ELEMENT_THEORY":"SGP4","ECCENTRICITY":"0.00007990","RCS_SIZE":"LARGE","LAUNCH_DATE":"2021-05-26","TLE_LINE2":"2 48658  53.0537 352.7893 0000799  94.0718 266.0362 15.06413245110904","RA_OF_ASC_NODE":"352.7893","GP_ID":"232853066","DECAY_DATE":null,"PERIOD":"95.591","REF_FRAME":"TEME","PERIAPSIS":"546.620","SEMIMAJOR_AXIS":"6925.308","MEAN_ANOMALY":"266.0362","ELEMENT_SET_NO":"999","MEAN_MOTION_DOT":"0.00010849","CENTER_NAME":"EARTH","OBJECT_ID":"2021-044W","MEAN_MOTION_DDOT":"0.0000000000000","COUNTRY_CODE":"US","FILE":"3921192","NORAD_CAT_ID":"48658","TLE_LINE1":"1 48658U 21044W   23150.88044958  .00010849  00000-0  74580-3 0  9998","OBJECT_NAME":"STARLINK-2647","EPOCH":"2023-05-30T21:07:50.843712","ARG_OF_PERICENTER":"94.0718","EPHEMERIS_TYPE":"0","REV_AT_EPOCH":"11090","APOAPSIS":"547.726","INCLINATION":"53.0537","OBJECT_TYPE":"PAYLOAD","MEAN_MOTION":"15.06413245","TIME_SYSTEM":"UTC"},{"INCLINATION":"53.0550","OBJECT_TYPE":"PAYLOAD","MEAN_MOTION":"15.06404571","TIME_SYSTEM":"UTC","ARG_OF_PERICENTER":"83.2577","EPHEMERIS_TYPE":"0","REV_AT_EPOCH":"11090","APOAPSIS":"547.926","NORAD_CAT_ID":"48659","TLE_LINE1":"1 48659U 21044X   23150.87676964  .00012834  00000-0  87882-3 0  9991","OBJECT_NAME":"STARLINK-2717","EPOCH":"2023-05-30T21:02:32.896896","MEAN_MOTION_DOT":"0.00012834","CENTER_NAME":"EARTH","MEAN_MOTION_DDOT":"0.0000000000000","OBJECT_ID":"2021-044X","FILE":"3921192","COUNTRY_CODE":"US","PERIAPSIS":"546.473","REF_FRAME":"TEME","MEAN_ANOMALY":"276.8531","SEMIMAJOR_AXIS":"6925.335","ELEMENT_SET_NO":"999","RA_OF_ASC_NODE":"352.8003","TLE_LINE2":"2 48659  53.0550 352.8003 0001049  83.2577 276.8531 15.06404571110905","GP_ID":"232852816","DECAY_DATE":null,"PERIOD":"95.592","ECCENTRICITY":"0.00010490","LAUNCH_DATE":"2021-05-26","RCS_SIZE":"LARGE","BSTAR":"0.00087882000000","SITE":"AFETR","CLASSIFICATION_TYPE":"U","MEAN_ELEMENT_THEORY":"SGP4"},{"APOAPSIS":"547.767","ARG_OF_PERICENTER":"79.2536","EPHEMERIS_TYPE":"0","REV_AT_EPOCH":"11090","TIME_SYSTEM":"UTC","INCLINATION":"53.0550","MEAN_MOTION":"15.06420420","OBJECT_TYPE":"PAYLOAD","MEAN_MOTION_DDOT":"0.0000000000000","OBJECT_ID":"2021-044Y","FILE":"3921192","COUNTRY_CODE":"US","MEAN_MOTION_DOT":"0.00018248","CENTER_NAME":"EARTH","TLE_LINE1":"1 48660U 21044Y   23150.87307903  .00018248  00000-0  12401-2 0  9996","OBJECT_NAME":"STARLINK-2688","EPOCH":"2023-05-30T20:57:14.028192","NORAD_CAT_ID":"48660","DECAY_DATE":null,"PERIOD":"95.591","RA_OF_ASC_NODE":"352.8191","TLE_LINE2":"2 48660  53.0550 352.8191 0000889  79.2536 280.8553 15.06420420110906","GP_ID":"232852065","ELEMENT_SET_NO":"999","PERIAPSIS":"546.535","REF_FRAME":"TEME","MEAN_ANOMALY":"280.8553","SEMIMAJOR_AXIS":"6925.286","MEAN_ELEMENT_THEORY":"SGP4","BSTAR":"0.00124010000000","SITE":"AFETR","CLASSIFICATION_TYPE":"U","LAUNCH_DATE":"2021-05-26","RCS_SIZE":"LARGE","ECCENTRICITY":"0.00008890"},{"OBJECT_TYPE":"PAYLOAD","MEAN_MOTION":"15.06414904","INCLINATION":"53.0548","TIME_SYSTEM":"UTC","EPHEMERIS_TYPE":"0","REV_AT_EPOCH":"11103","ARG_OF_PERICENTER":"91.6896","APOAPSIS":"547.746","NORAD_CAT_ID":"48661","EPOCH":"2023-05-30T19:23:01.172544","TLE_LINE1":"1 48661U 21044Z   23150.80765246  .00015673  00000-0  10683-2 0  9997","OBJECT_NAME":"STARLINK-2708","CENTER_NAME":"EARTH","MEAN_MOTION_DOT":"0.00015673","FILE":"3921192","COUNTRY_CODE":"US","MEAN_MOTION_DDOT":"0.0000000000000","OBJECT_ID":"2021-044Z","MEAN_ANOMALY":"268.4188","SEMIMAJOR_AXIS":"6925.303","PERIAPSIS":"546.590","REF_FRAME":"TEME","ELEMENT_SET_NO":"999","GP_ID":"232852315","RA_OF_ASC_NODE":"343.1096","TLE_LINE2":"2 48661  53.0548 343.1096 0000835  91.6896 268.4188 15.06414904111030","PERIOD":"95.591","DECAY_DATE":null,"ECCENTRICITY":"0.00008350","LAUNCH_DATE":"2021-05-26","RCS_SIZE":"LARGE","SITE":"AFETR","CLASSIFICATION_TYPE":"U","BSTAR":"0.00106830000000","MEAN_ELEMENT_THEORY":"SGP4"},{"MEAN_MOTION":"15.06422469","OBJECT_TYPE":"PAYLOAD","INCLINATION":"53.0538","TIME_SYSTEM":"UTC","REV_AT_EPOCH":"11103","EPHEMERIS_TYPE":"0","ARG_OF_PERICENTER":"90.4547","APOAPSIS":"547.616","NORAD_CAT_ID":"48662","EPOCH":"2023-05-30T19:17:42.621792","OBJECT_NAME":"STARLINK-2726","TLE_LINE1":"1 48662U 21044AA  23150.80396553  .00012310  00000-0  84332-3 0  9997","CENTER_NAME":"EARTH","MEAN_MOTION_DOT":"0.00012310","FILE":"3921192","COUNTRY_CODE":"US","MEAN_MOTION_DDOT":"0.0000000000000","OBJECT_ID":"2021-044AA","MEAN_ANOMALY":"269.6520","SEMIMAJOR_AXIS":"6925.280","REF_FRAME":"TEME","PERIAPSIS":"546.674","ELEMENT_SET_NO":"999","GP_ID":"232852566","RA_OF_ASC_NODE":"343.1260","TLE_LINE2":"2 48662  53.0538 343.1260 0000680  90.4547 269.6520 15.06422469111039","DECAY_DATE":null,"PERIOD":"95.591","ECCENTRICITY":"0.00006800","LAUNCH_DATE":"2021-05-26","RCS_SIZE":"LARGE","SITE":"AFETR","CLASSIFICATION_TYPE":"U","BSTAR":"0.00084332000000","MEAN_ELEMENT_THEORY":"SGP4"},{"ELEMENT_SET_NO":"999","REF_FRAME":"TEME","PERIAPSIS":"546.670","SEMIMAJOR_AXIS":"6925.291","MEAN_ANOMALY":"267.0577","DECAY_DATE":null,"PERIOD":"95.591","TLE_LINE2":"2 48663  53.0541 343.1424 0000703  93.0492 267.0577 15.06418632111031","RA_OF_ASC_NODE":"343.1424","GP_ID":"232853317","RCS_SIZE":"LARGE","LAUNCH_DATE":"2021-05-26","ECCENTRICITY":"0.00007030","MEAN_ELEMENT_THEORY":"SGP4","BSTAR":"0.00110470000000","CLASSIFICATION_TYPE":"U","SITE":"AFETR","TIME_SYSTEM":"UTC","INCLINATION":"53.0541","OBJECT_TYPE":"PAYLOAD","MEAN_MOTION":"15.06418632","APOAPSIS":"547.643","ARG_OF_PERICENTER":"93.0492","EPHEMERIS_TYPE":"0","REV_AT_EPOCH":"11103","OBJECT_NAME":"STARLINK-2667","TLE_LINE1":"1 48663U 21044AB  23150.80028042  .00016220  00000-0  11047-2 0  9999","EPOCH":"2023-05-30T19:12:24.228288","NORAD_CAT_ID":"48663","OBJECT_ID":"2021-044AB","MEAN_MOTION_DDOT":"0.0000000000000","COUNTRY_CODE":"US","FILE":"3921192","MEAN_MOTION_DOT":"0.00016220","CENTER_NAME":"EARTH"},{"OBJECT_NAME":"STARLINK-2709","TLE_LINE1":"1 48664U 21044AC  23150.79659362  .00014447  00000-0  98636-3 0  9992","EPOCH":"2023-05-30T19:07:05.688768","NORAD_CAT_ID":"48664","MEAN_MOTION_DDOT":"0.0000000000000","OBJECT_ID":"2021-044AC","FILE":"3921192","COUNTRY_CODE":"US","MEAN_MOTION_DOT":"0.00014447","CENTER_NAME":"EARTH","TIME_SYSTEM":"UTC","INCLINATION":"53.0536","OBJECT_TYPE":"PAYLOAD","MEAN_MOTION":"15.06416804","APOAPSIS":"547.661","ARG_OF_PERICENTER":"96.8640","REV_AT_EPOCH":"11103","EPHEMERIS_TYPE":"0","LAUNCH_DATE":"2021-05-26","RCS_SIZE":"LARGE","ECCENTRICITY":"0.00007210","MEAN_ELEMENT_THEORY":"SGP4","BSTAR":"0.00098636000000","SITE":"AFETR","CLASSIFICATION_TYPE":"U","ELEMENT_SET_NO":"999","REF_FRAME":"TEME","PERIAPSIS":"546.663","MEAN_ANOMALY":"263.2431","SEMIMAJOR_AXIS":"6925.297","DECAY_DATE":null,"PERIOD":"95.591","RA_OF_ASC_NODE":"343.1591","TLE_LINE2":"2 48664  53.0536 343.1591 0000721  96.8640 263.2431 15.06416804111033","GP_ID":"232851565"},{"RA_OF_ASC_NODE":"343.1001","TLE_LINE2":"2 48665  53.0548 343.1001 0000848  96.2375 263.8711 15.06417779111031","GP_ID":"232851815","DECAY_DATE":null,"PERIOD":"95.591","REF_FRAME":"TEME","PERIAPSIS":"546.572","MEAN_ANOMALY":"263.8711","SEMIMAJOR_AXIS":"6925.294","ELEMENT_SET_NO":"999","BSTAR":"0.00097574000000","SITE":"AFETR","CLASSIFICATION_TYPE":"U","MEAN_ELEMENT_THEORY":"SGP4","ECCENTRICITY":"0.00008480","LAUNCH_DATE":"2021-05-26","RCS_SIZE":"LARGE","ARG_OF_PERICENTER":"96.2375","REV_AT_EPOCH":"11103","EPHEMERIS_TYPE":"0","APOAPSIS":"547.746","INCLINATION":"53.0548","MEAN_MOTION":"15.06417779","OBJECT_TYPE":"PAYLOAD","TIME_SYSTEM":"UTC","MEAN_MOTION_DOT":"0.00014289","CENTER_NAME":"EARTH","MEAN_MOTION_DDOT":"0.0000000000000","OBJECT_ID":"2021-044AD","FILE":"3921192","COUNTRY_CODE":"US","NORAD_CAT_ID":"48665","TLE_LINE1":"1 48665U 21044AD  23150.81039179  .00014289  00000-0  97574-3 0  9998","OBJECT_NAME":"STARLINK-2653","EPOCH":"2023-05-30T19:26:57.850656"}];
